{
"type": "FeatureCollection",
"name": "polygons",
"crs": { "type": "name", "properties": { "name": "urn:ogc:def:crs:OGC:1.3:CRS84" } },
"features": [
{ "type": "Feature", "properties": { }, "geometry": { "type": "Polygon", "coordinates": [ [ [ 4.822493136828553, 52.667988433377715 ], [ 4.821703525291919, 52.667568589827518 ], [ 4.822309767324713, 52.667148742243633 ], [ 4.822339705202876, 52.667173706266887 ], [ 4.822369643081037, 52.66714420332881 ], [ 4.822822453488303, 52.667389304055412 ], [ 4.822792515610144, 52.667416537384639 ], [ 4.823088152157033, 52.667582206438361 ], [ 4.822493136828553, 52.667988433377715 ] ] ] } }
]
}
